1 48019C 21024AU  22354.15187500  .00006731  00000-0  45096-3 0  3543
2 48019  53.0534 188.8018 0001500  76.3028 115.4945 15.06391754    11
STARLINK-2294           
1 48020C 21024AV  22354.16159722 -.00013742  00000-0 -92071-3 0  3548
2 48020  53.0522 144.1785 0001791  49.5033 322.4027 15.06412603    14
STARLINK-2301           
1 48021C 21024AW  22354.17270833 -.00015774  00000-0 -10569-2 0  3545
2 48021  53.0517 148.7274 0001840  51.6053 313.3538 15.06412222    16
STARLINK-2298           
1 48022C 21024AX  22354.16229167  .00015879  00000-0  10640-2 0  3543
2 48022  53.0519 209.0502 0001650  77.3576  80.7816 15.06379463    11
STARLINK-2292           
1 48023C 21024AY  22354.15534722  .00015333  00000-0  10271-2 0  3544
2 48023  53.0517 208.8071 0001555  86.1601  94.4474 15.06389351    18
STARLINK-2278           
1 48026C 21024BB  22354.14284722 -.00006657  00000-0 -44597-3 0  3548
2 48026  53.0539 213.8572 0001466 109.3520 116.0397 15.06407779    16
STARLINK-2300           
1 48027C 21024BC  22354.16437500  .00005552  00000-0  37200-3 0  3549
2 48027  53.0518 188.7530 0001352  91.9717 107.6151 15.06392589    12
STARLINK-2264           
1 48028C 21024BD  22354.16506944 -.00013394  00000-0 -89748-3 0  3548
2 48028  53.0521 144.1569 0001960  53.9093 236.8357 15.06409730    15
STARLINK-2299           
1 48029C 21024BE  22354.13034722  .00016173  00000-0  10838-2 0  3545
2 48029  53.0531 208.9012 0001301  76.9039  88.1035 15.06375467    13
STARLINK-2268           
1 48030C 21024BF  22354.15812500  .00016682  00000-0  11180-2 0  3543
2 48030  53.0521 213.7952 0001297  90.2401  77.9909 15.06374460    15
STARLINK-2267           
1 48031C 21024BG  22354.17479167 -.00018327  00000-0 -12276-2 0  3541
2 48031  53.0537  98.7173 0001673  46.6681   4.5883 15.06425382    19
STARLINK-2286           
1 48033C 21024BJ  22354.12062500  .00017225  00000-0  11550-2 0  3545
2 48033  53.0518 208.9673 0001234  94.0300  78.2993 15.06353571    18
STARLINK-2288           
1 48034C 21024BK  22354.15673611  .00013987  00000-0  93755-3 0  3549
2 48034  53.0511 208.8054 0001289  82.4329 185.7774 15.06370096    18
STARLINK-2295           
1 48036C 21024BM  22354.15743056 -.00012159  00000-0 -81461-3 0  3545
2 48036  53.0519 208.8003 0001544  70.0158 162.0014 15.06414236    19
STARLINK-2048           
1 48092C 21027A   22354.18659722 -.00026177  00000-0 -17549-2 0  3549
2 48092  53.0536 333.9425 0001526  95.9486 266.6113 15.06403656    13
STARLINK-2404           
1 48093C 21027B   22354.17826389 -.00022686  00000-0 -15200-2 0  3547
2 48093  53.0560  38.9105 0002189  33.8688 126.0816 15.06420925    16
STARLINK-2412           
1 48094C 21027C   22354.17131944 -.00021109  00000-0 -14143-2 0  3548
2 48094  53.0549  48.7375 0002001  34.4745 352.9218 15.06420679    18
STARLINK-2414           
1 48095C 21027D   22354.17895833 -.00021703  00000-0 -14539-2 0  3542
2 48095  53.0552  48.6882 0002339  30.0792 358.7539 15.06425425    17
STARLINK-2417           
1 48096C 21027E   22354.17687500 -.00021337  00000-0 -14297-2 0  3547
2 48096  53.0544  48.7008 0001975  38.6849 118.8558 15.06418738    17
STARLINK-2418           
1 48097C 21027F   22354.13243056 -.00033226  00000-0 -22265-2 0  3542
2 48097  53.0513  28.9171 0001506  75.3730 310.9295 15.06426607    19
STARLINK-2421           
1 48098C 21027G   22354.17479167 -.00021463  00000-0 -14377-2 0  3546
2 48098  53.0540  38.7124 0002089  35.6516 345.5716 15.06427259    11
STARLINK-2428           
1 48099C 21027H   22354.17548611 -.00019027  00000-0 -12748-2 0  3541
2 48099  53.0551  48.7213 0002041  36.1960  53.8110 15.06417108    10
STARLINK-2430           
1 48100C 21027J   22354.17270833 -.00022620  00000-0 -15154-2 0  3549
2 48100  53.0548  28.7236 0002636  27.6066 257.3271 15.06423432    10
STARLINK-2436           
1 48101C 21027K   22354.17340278 -.00020791  00000-0 -13929-2 0  3546
2 48101  53.0545  38.7253 0002047  36.4515 342.3625 15.06421325    18
STARLINK-2437           
1 48102C 21027L   22354.16576389 -.00026470  00000-0 -17735-2 0  3549
2 48102  53.0536  28.7507 0002227  40.6693  66.5859 15.06425159    17
STARLINK-2438           
1 48103C 21027M   22354.17687500 -.00019591  00000-0 -13128-2 0  3547
2 48103  53.0549  28.7405 0002190  32.0512  80.5993 15.06413533    11
STARLINK-2439           
1 48104C 21027N   22354.15951389 -.00031290  00000-0 -20967-2 0  3544
2 48104  53.0538  33.7803 0001437  82.1820 243.5694 15.06425623    11
STARLINK-2440           
1 48105C 21027P   22354.16090278 -.00027448  00000-0 -18397-2 0  3541
2 48105  53.0532 338.7783 0001876  68.8894  46.9218 15.06412335    13
STARLINK-2442           
1 48106C 21027Q   22354.17548611 -.00023665  00000-0 -15858-2 0  3548
2 48106  53.0530  28.7278 0001656  54.9621 225.0600 15.06418211    11
STARLINK-2443           
1 48107C 21027R   22354.15673611 -.00018012  00000-0 -12069-2 0  3547
2 48107  53.0550  28.8017 0001788  41.8718  56.4139 15.06415038    11
STARLINK-2444           
1 48108C 21027S   22354.15256944 -.00029149  00000-0 -19533-2 0  3540
2 48108  53.0540  38.8137 0001809  56.6303 163.9490 15.06422291    16
STARLINK-2445           
1 48109C 21027T   22354.17548611 -.00021217  00000-0 -14213-2 0  3546
2 48109  53.0553  48.7166 0002169  31.8905 238.0984 15.06426543    12
STARLINK-2447           
1 48110C 21027U   22354.17062500 -.00022849  00000-0 -15307-2 0  3543
2 48110  53.0552  38.7370 0002026  39.6649 338.9704 15.06424417    10
STARLINK-2448           
1 48111C 21027V   22354.17826389 -.00028064  00000-0 -18803-2 0  3546
2 48111  53.0548  38.6807 0001797  46.7782  53.3214 15.06426743    19
STARLINK-2449           
1 48112C 21027W   22354.16854167 -.00026138  00000-0 -17512-2 0  3547
2 48112  53.0552  53.9137 0002351  31.3143  53.4168 15.06425421    10
STARLINK-2450           
1 48113C 21027X   22354.17201389 -.00024716  00000-0 -16559-2 0  3541
2 48113  53.0552  48.7368 0001886  45.7920  45.3821 15.06424628    17
STARLINK-2451           
1 48114C 21027Y   22354.15743056 -.00024198  00000-0 -16212-2 0  3542
2 48114  53.0543  43.7843 0001545  62.1619 162.4994 15.06423961    12
STARLINK-2452           
1 48115C 21027Z   22354.15812500 -.00022683  00000-0 -15202-2 0  3549
2 48115  53.0542  38.7956 0001953  53.7808  22.0814 15.06410101    14
STARLINK-2454           
1 48116C 21027AA  22354.17826389 -.00024986  00000-0 -16738-2 0  3545
2 48116  53.0551  48.6933 0002389  31.0807 113.9900 15.06427989    10
STARLINK-2455           
1 48117C 21027AB  22354.17479167 -.00019610  00000-0 -13136-2 0  3541
2 48117  53.0555  28.7152 0003058  25.0769 256.2657 15.06422626    14
STARLINK-2458           
1 48118C 21027AC  22354.13868056 -.00018443  00000-0 -12361-2 0  3549
2 48118  53.0541  28.8826 0002024  49.5604 330.6805 15.06404688    10
STARLINK-2459           
1 48119C 21027AD  22354.14840278 -.00019312  00000-0 -12937-2 0  3542
2 48119  53.0551  28.8339 0002100  36.3178  61.8380 15.06423507    18
STARLINK-2460           
1 48120C 21027AE  22354.17895833 -.00022000  00000-0 -14738-2 0  3543
2 48120  53.0552  48.7078 0001740  40.7970 188.0172 15.06425989    17
STARLINK-2462           
1 48121C 21027AF  22354.17826389 -.00026482  00000-0 -17740-2 0  3548
2 48121  53.0551  38.7046 0001842  49.1126 330.9092 15.06432265    14
STARLINK-2463           
1 48122C 21027AG  22354.17687500 -.00022819  00000-0 -15287-2 0  3543
2 48122  53.0545  33.6730 0002306  32.6139 347.4444 15.06424906    16
STARLINK-2464           
1 48123C 21027AH  22354.16854167 -.00017738  00000-0 -11884-2 0  3541
2 48123  53.0554  28.7519 0002181  40.6308 241.6920 15.06415301    18
STARLINK-2465           
1 48124C 21027AJ  22354.16645833 -.00015028  00000-0 -10067-2 0  3542
2 48124  53.0535  38.7478 0002082  34.9401 241.0893 15.06418210    18
STARLINK-2466           
1 48125C 21027AK  22354.17062500 -.00026754  00000-0 -17923-2 0  3544
2 48125  53.0555  48.9816 0001982  42.0592 181.4206 15.06429093    15
STARLINK-2467           
1 48126C 21027AL  22354.16854167 -.00024093  00000-0 -16143-2 0  3549
2 48126  53.0540  28.7528 0002097  39.7150  62.6199 15.06421406    18
STARLINK-2468           
1 48127C 21027AM  22354.16923611 -.00022526  00000-0 -15091-2 0  3541
2 48127  53.0537  48.7460 0001858  38.0958 117.9810 15.06424847    10
STARLINK-2469           
1 48128C 21027AN  22354.16576389 -.00032931  00000-0 -22074-2 0  3548
2 48128  53.0534 338.8453 0002157  66.7566 175.3861 15.06414032    18
STARLINK-2471           
1 48129C 21027AP  22354.16715278 -.00029134  00000-0 -19522-2 0  3546
2 48129  53.0537  48.7516 0001943  51.6790 133.0249 15.06423300    12
STARLINK-2472           
1 48130C 21027AQ  22354.16298611 -.00016477  00000-0 -11038-2 0  3545
2 48130  53.0546  53.7735 0001956  36.7715 183.0322 15.06418497    16
STARLINK-2473           
1 48131C 21027AR  22354.16229167 -.00022417  00000-0 -15019-2 0  3540
2 48131  53.0551  28.7623 0002368  30.7282  77.6779 15.06420841    12
STARLINK-2474           
1 48132C 21027AS  22354.17270833 -.00018852  00000-0 -12630-2 0  3542
2 48132  53.0542  48.7198 0001982  37.5052 237.3998 15.06421113    14
STARLINK-2475           
1 48133C 21027AT  22354.16784722 -.00019416  00000-0 -13007-2 0  3545
2 48133  53.0543  48.7410 0001896  38.8162 229.7345 15.06424064    12
STARLINK-2476           
1 48134C 21027AU  22354.17340278 -.00018468  00000-0 -12374-2 0  3543
2 48134  53.0543  48.7248 0001940  39.8856 338.8245 15.06416842    19
STARLINK-2478           
1 48135C 21027AV  22354.17618056 -.00019403  00000-0 -12999-2 0  3549
2 48135  53.0550  53.8743 0002107  40.1803 345.9909 15.06422241    14
STARLINK-2479           
1 48136C 21027AW  22354.16020833 -.00028474  00000-0 -19081-2 0  3546
2 48136  53.0544  48.7711 0001669  52.5662 119.6002 15.06420843    14
STARLINK-2480           
1 48137C 21027AX  22354.17826389 -.00023150  00000-0 -15511-2 0  3548
